NORAD_CAT_ID,OBJECT_NAME,OBJECT_TYPE,EPOCH,MEAN_MOTION,ECCENTRICITY,INCLINATION,RA_OF_ASC_NODE,ARG_OF_PERICENTER,MEAN_ANOMALY,BSTAR,MEAN_MOTION_DOT,MEAN_MOTION_DDOT,TLE_LINE0,TLE_LINE1,TLE_LINE2,SEMIMAJOR_AXIS,PERIOD,APOGEE,PERIGEE,DECAYED
53407.0,STARLINK-4537,PAYLOAD,2023-07-26 00:16:44,15.08836638,9.3e-05,53.2164,83.5381,91.0872,269.0227,-3.1515e-05,-7.89e-06,0.0,0 STARLINK-4537,1 53407U 22097V   23207.01162172 -.00000789  00000-0 -31515-4 0  9998,2 53407  53.2164  83.5381 0000930  91.0872 269.0227 15.08836638 54217,6917.891,95.438,540.399,539.112,0.0
53407.0,STARLINK-4537,PAYLOAD,2023-07-27 00:07:30,15.08845235,8.64e-05,53.2177,79.0761,89.0497,271.0594,0.00016692,2.37e-05,0.0,0 STARLINK-4537,1 53407U 22097V   23208.00521151  .00002370  00000-0  16692-3 0  9998,2 53407  53.2177  79.0761 0000864  89.0497 271.0594 15.08845235 53873,6917.864,95.437,540.327,539.132,0.0
53407.0,STARLINK-4537,PAYLOAD,2023-07-27 08:04:26,15.08833674,9.33e-05,53.2176,77.587,90.6011,269.5088,4.1918e-05,3.79e-06,0.0,0 STARLINK-4537,1 53407U 22097V   23208.33642236  .00000379  00000-0  41918-4 0  9999,2 53407  53.2176  77.5870 0000933  90.6011 269.5088 15.08833674 53923,6917.9,95.438,540.41,539.119,0.0
53407.0,STARLINK-4537,PAYLOAD,2023-07-27 22:22:56,15.08825953,0.000107,53.2171,74.9112,88.9164,271.1951,-6.3648e-05,-1.3e-05,0.0,0 STARLINK-4537,1 53407U 22097V   23208.93259430 -.00001300  00000-0 -63648-4 0  9996,2 53407  53.2171  74.9112 0001070  88.9164 271.1951 15.08825953 54504,6917.923,95.438,540.529,539.048,0.0
53407.0,STARLINK-4537,PAYLOAD,2023-07-27 23:58:19,15.08824675,8.64e-05,53.2172,74.6171,108.4209,251.6878,-7.6591e-05,-1.506e-05,0.0,0 STARLINK-4537,1 53407U 22097V   23208.99883612 -.00001506  00000-0 -76591-4 0  9996,2 53407  53.2172  74.6171 0000864 108.4209 251.6878 15.08824675 54023,6917.927,95.439,540.39,539.195,0.0
53407.0,STARLINK-4537,PAYLOAD,2023-07-28 14:16:46,15.08850624,7.97e-05,53.2173,71.9402,109.7728,250.335,-0.00010898,-2.022e-05,0.0,0 STARLINK-4537,1 53407U 22097V   23209.59498550 -.00002022  00000-0 -10898-3 0  9997,2 53407  53.2173  71.9402 0000797 109.7728 250.3350 15.08850624 54604,6917.848,95.437,540.264,539.162,0.0
53407.0,STARLINK-4537,PAYLOAD,2023-07-28 15:52:09,15.08859574,5.19e-05,53.2178,71.6424,111.4258,248.679,-0.00021785,-3.755e-05,0.0,0 STARLINK-4537,1 53407U 22097V   23209.66122502 -.00003755  00000-0 -21785-3 0  9997,2 53407  53.2178  71.6424 0000519 111.4258 248.6790 15.08859574 54128,6917.821,95.436,540.045,539.327,0.0
53407.0,STARLINK-4537,PAYLOAD,2023-07-28 23:49:04,15.08872718,8.73e-05,53.2174,70.1554,115.3349,244.7734,-0.00028251,-4.785e-05,0.0,0 STARLINK-4537,1 53407U 22097V   23209.99241524 -.00004785  00000-0 -28251-3 0  9998,2 53407  53.2174  70.1554 0000873 115.3349 244.7734 15.08872718 54174,6917.78,95.435,540.249,539.041,0.0
53407.0,STARLINK-4537,PAYLOAD,2023-07-29 18:53:43,15.08835946,7.92e-05,53.2172,66.5867,115.8268,244.2805,0.00020436,2.966e-05,0.0,0 STARLINK-4537,1 53407U 22097V   23210.78730396  .00002966  00000-0  20436-3 0  9991,2 53407  53.2172  66.5867 0000792 115.8268 244.2805 15.08835946 54292,6917.893,95.438,540.306,539.21,0.0
53407.0,STARLINK-4537,PAYLOAD,2023-07-30 01:15:15,15.08845415,8.11e-05,53.2173,65.3973,110.422,249.6859,0.00023525,3.459e-05,0.0,0 STARLINK-4537,1 53407U 22097V   23211.05225873  .00003459  00000-0  23525-3 0  9991,2 53407  53.2173  65.3973 0000811 110.4220 249.6859 15.08845415 54334,6917.864,95.437,540.29,539.168,0.0
53407.0,STARLINK-4537,PAYLOAD,2023-07-30 18:44:30,15.08842083,8.76e-05,53.2177,62.1257,102.5038,257.6052,1.0724e-05,-1.17e-06,0.0,0 STARLINK-4537,1 53407U 22097V   23211.78090762 -.00000117  00000-0  10724-4 0  9995,2 53407  53.2177  62.1257 0000876 102.5038 257.6052 15.08842083 54442,6917.874,95.437,540.345,539.133,0.0
53407.0,STARLINK-4537,PAYLOAD,2023-07-31 23:21:26,15.08849688,6.97e-05,53.2168,56.7735,98.2325,261.8746,2.6336e-05,1.32e-06,0.0,0 STARLINK-4537,1 53407U 22097V   23212.97322155  .00000132  00000-0  26336-4 0  9993,2 53407  53.2168  56.7735 0000697  98.2325 261.8746 15.08849688 54628,6917.851,95.437,540.198,539.234,0.0
53407.0,STARLINK-4537,PAYLOAD,2023-08-01 18:26:04,15.08830621,8.98e-05,53.2173,53.2034,101.7557,258.3536,0.00023608,3.471e-05,0.0,0 STARLINK-4537,1 53407U 22097V   23213.76810864  .00003471  00000-0  23608-3 0  9997,2 53407  53.2173  53.2034 0000898 101.7557 258.3536 15.08830621 54746,6917.909,95.438,540.395,539.153,0.0
53407.0,STARLINK-4537,PAYLOAD,2023-08-01 20:01:27,15.08849233,7.63e-05,53.2175,52.906,89.0018,271.1062,3.0036e-05,1.91e-06,0.0,0 STARLINK-4537,1 53407U 22097V   23213.83434337  .00000191  00000-0  30036-4 0  9992,2 53407  53.2175  52.9060 0000763  89.0018 271.1062 15.08849233 54751,6917.852,95.437,540.245,539.189,0.0
53407.0,STARLINK-4537,PAYLOAD,2023-08-02 18:16:51,15.08844092,8.42e-05,53.2173,48.7428,87.5519,272.5569,0.00011571,1.554e-05,0.0,0 STARLINK-4537,1 53407U 22097V   23214.76170467  .00001554  00000-0  11571-3 0  9992,2 53407  53.2173  48.7428 0000842  87.5519 272.5569 15.08844092 54897,6917.868,95.437,540.315,539.15,0.0
53407.0,STARLINK-4537,PAYLOAD,2023-08-03 18:07:38,15.08841953,7.72e-05,53.2172,44.2845,80.5093,279.5986,6.8249e-05,7.99e-06,0.0,0 STARLINK-4537,1 53407U 22097V   23215.75530837  .00000799  00000-0  68249-4 0  9998,2 53407  53.2172  44.2845 0000772  80.5093 279.5986 15.08841953 55043,6917.874,95.437,540.273,539.205,0.0
53407.0,STARLINK-4537,PAYLOAD,2023-08-03 22:53:47,15.08847666,7.87e-05,53.2166,43.3918,80.8941,279.214,0.00011165,1.49e-05,0.0,0 STARLINK-4537,1 53407U 22097V   23215.95402264  .00001490  00000-0  11165-3 0  9995,2 53407  53.2166  43.3918 0000787  80.8941 279.2140 15.08847666 55077,6917.857,95.437,540.266,539.178,0.0
53407.0,STARLINK-4537,PAYLOAD,2023-08-04 17:58:25,15.08837938,8.21e-05,53.2169,39.823,85.3735,274.7351,-2.0395e-05,-6.12e-06,0.0,0 STARLINK-4537,1 53407U 22097V   23216.74890839 -.00000612  00000-0 -20395-4 0  9995,2 53407  53.2169  39.8230 0000821  85.3735 274.7351 15.08837938 55195,6917.887,95.438,540.32,539.184,0.0
53407.0,STARLINK-4537,PAYLOAD,2023-08-05 17:49:12,15.08848157,8.04e-05,53.2167,35.3637,89.5975,270.5109,0.00023752,3.495e-05,0.0,0 STARLINK-4537,1 53407U 22097V   23217.74250583  .00003495  00000-0  23752-3 0  9991,2 53407  53.2167  35.3637 0000804  89.5975 270.5109 15.08848157 55345,6917.855,95.437,540.277,539.164,0.0
53407.0,STARLINK-4537,PAYLOAD,2023-08-06 11:18:27,15.08835749,0.0001379,53.2168,32.0951,77.7809,282.3337,7.1457e-05,8.49e-06,0.0,0 STARLINK-4537,1 53407U 22097V   23218.47115569  .00000849  00000-0  71457-4 0  9992,2 53407  53.2168  32.0951 0001379  77.7809 282.3337 15.08835749 55451,6917.893,95.438,540.712,538.804,0.0
53407.0,STARLINK-4537,PAYLOAD,2023-08-07 17:30:47,15.08853124,7.16e-05,53.2168,26.4427,109.43,250.677,0.0009674,0.00015147,0.0,0 STARLINK-4537,1 53407U 22097V   23219.72971704  .00015147  00000-0  96740-3 0  9990,2 53407  53.2168  26.4427 0000716 109.4300 250.6770 15.08853124 55646,6917.84,95.437,540.201,539.21,0.0
53407.0,STARLINK-4537,PAYLOAD,2023-08-08 11:00:01,15.08854153,8.32e-05,53.2178,23.1727,103.2618,256.8467,0.0006896,0.00010708,0.0,0 STARLINK-4537,1 53407U 22097V   23220.45835607  .00010708  00000-0  68960-3 0  9994,2 53407  53.2178  23.1727 0000832 103.2618 256.8467 15.08854153 55753,6917.837,95.437,540.278,539.127,0.0
53407.0,STARLINK-4537,PAYLOAD,2023-08-08 17:21:34,15.08848103,7.73e-05,53.2174,21.9825,90.8129,269.2952,0.00036963,5.601e-05,0.0,0 STARLINK-4537,1 53407U 22097V   23220.72331621  .00005601  00000-0  36963-3 0  9995,2 53407  53.2174  21.9825 0000773  90.8129 269.2952 15.08848103 55795,6917.856,95.437,540.255,539.186,0.0
53407.0,STARLINK-4537,PAYLOAD,2023-08-09 10:50:49,15.08841381,7.66e-05,53.2152,18.7091,90.1799,269.9281,0.00013879,1.922e-05,0.0,0 STARLINK-4537,1 53407U 22097V   23221.45195661  .00001922  00000-0  13879-3 0  9991,2 53407  53.2152  18.7091 0000766  90.1799 269.9281 15.08841381 55904,6917.876,95.437,540.271,539.211,0.0
53407.0,STARLINK-4537,PAYLOAD,2023-08-10 17:03:08,15.08845287,6.29e-05,53.217,13.0615,81.7409,278.3655,0.00017032,2.424e-05,0.0,0 STARLINK-4537,1 53407U 22097V   23222.71051455  .00002424  00000-0  17032-3 0  9996,2 53407  53.2170  13.0615 0000629  81.7409 278.3655 15.08845287 56095,6917.864,95.437,540.164,539.294,0.0
53407.0,STARLINK-4537,PAYLOAD,2023-08-11 10:32:23,15.08833803,6.46e-05,53.2172,9.7907,84.7793,275.3273,7.6303e-06,-1.66e-06,0.0,0 STARLINK-4537,1 53407U 22097V   23223.43915934 -.00000166  00000-0  76303-5 0  9997,2 53407  53.2172   9.7907 0000646  84.7793 275.3273 15.08833803 56208,6917.899,95.438,540.211,539.317,0.0
53407.0,STARLINK-4537,PAYLOAD,2023-08-11 18:29:18,15.08844577,6.67e-05,53.2187,8.3048,89.4256,270.6813,0.0001197,1.618e-05,0.0,0 STARLINK-4537,1 53407U 22097V   23223.77035448  .00001618  00000-0  11970-3 0  9996,2 53407  53.2187   8.3048 0000667  89.4256 270.6813 15.08844577 56257,6917.866,95.437,540.193,539.27,0.0
53407.0,STARLINK-4537,PAYLOAD,2023-08-12 10:23:10,15.08837998,7.49e-05,53.2193,5.3317,100.7502,259.3575,6.3752e-05,7.27e-06,0.0,0 STARLINK-4537,1 53407U 22097V   23224.43276126  .00000727  00000-0  63752-4 0  9996,2 53407  53.2193   5.3317 0000749 100.7502 259.3575 15.08837998 56351,6917.887,95.438,540.27,539.233,0.0
53407.0,STARLINK-4537,PAYLOAD,2023-08-13 16:35:30,15.08839593,7.02e-05,53.2192,359.6816,81.2461,278.8611,5.0977e-05,5.24e-06,0.0,0 STARLINK-4537,1 53407U 22097V   23225.69132266  .00000524  00000-0  50977-4 0  9991,2 53407  53.2192 359.6816 0000702  81.2461 278.8611 15.08839593 56546,6917.882,95.438,540.232,539.261,0.0
53407.0,STARLINK-4537,PAYLOAD,2023-08-15 01:58:36,15.08850761,0.0001552,53.2189,353.4376,77.6355,282.481,1.5668e-05,-3.9e-07,0.0,0 STARLINK-4537,1 53407U 22097V   23227.08236149 -.00000039  00000-0  15668-4 0  9991,2 53407  53.2189 353.4376 0001552  77.6355 282.4810 15.08850761 56755,6917.847,95.437,540.786,538.639,0.0
